NORAD_CAT_ID,OBJECT_NAME,OBJECT_TYPE,EPOCH,MEAN_MOTION,ECCENTRICITY,INCLINATION,RA_OF_ASC_NODE,ARG_OF_PERICENTER,MEAN_ANOMALY,BSTAR,MEAN_MOTION_DOT,MEAN_MOTION_DDOT,TLE_LINE0,TLE_LINE1,TLE_LINE2,SEMIMAJOR_AXIS,PERIOD,APOGEE,PERIGEE,DECAYED
49149.0,STARLINK-3053,PAYLOAD,2024-02-19 22:01:07,14.98326591,0.0002941,70.002,22.3689,268.9471,91.1351,-6.8984e-06,-1.75e-06,0.0,0 STARLINK-3053,1 49149U 21082V   24050.91744789 -.00000175  00000-0 -68984-5 0  9995,2 49149  70.0020  22.3689 0002941 268.9471  91.1351 14.98326591135019,6950.203,96.107,574.112,570.024,0.0
49149.0,STARLINK-3053,PAYLOAD,2024-02-20 04:25:39,14.98326588,0.000289,70.0009,21.6941,260.4666,99.6167,-1.8077e-05,-3.09e-06,0.0,0 STARLINK-3053,1 49149U 21082V   24051.18448823 -.00000309  00000-0 -18077-4 0  9991,2 49149  70.0009  21.6941 0002890 260.4666  99.6167 14.98326588135064,6950.203,96.107,574.077,570.06,0.0
49149.0,STARLINK-3053,PAYLOAD,2024-02-20 07:37:55,14.98327,0.0002856,70.0013,21.3578,259.9369,100.1468,6.4392e-07,-8.5e-07,0.0,0 STARLINK-3053,1 49149U 21082V   24051.31800797 -.00000085  00000-0  64392-6 0  9991,2 49149  70.0013  21.3578 0002856 259.9369 100.1468 14.98327000135070,6950.202,96.107,574.052,570.082,0.0
49149.0,STARLINK-3053,PAYLOAD,2024-02-20 22:03:08,14.98331523,0.0002969,70.0012,19.8447,271.9845,88.0974,2.9968e-05,2.65e-06,0.0,0 STARLINK-3053,1 49149U 21082V   24051.91884453  .00000265  00000-0  29968-4 0  9995,2 49149  70.0012  19.8447 0002969 271.9845  88.0974 14.98331523135165,6950.188,96.107,574.117,569.99,0.0
49149.0,STARLINK-3053,PAYLOAD,2024-02-21 04:27:40,14.98332875,0.0003067,70.0012,19.1711,267.9562,92.1246,7.6005e-05,8.14e-06,0.0,0 STARLINK-3053,1 49149U 21082V   24052.18588182  .00000814  00000-0  76005-4 0  9999,2 49149  70.0012  19.1711 0003067 267.9562  92.1246 14.98332875135218,6950.184,96.107,574.181,569.917,0.0
49149.0,STARLINK-3053,PAYLOAD,2024-02-21 07:39:56,14.98336145,0.0003051,70.0013,18.8344,268.8218,91.2591,8.9181e-05,9.71e-06,0.0,0 STARLINK-3053,1 49149U 21082V   24052.31939927  .00000971  00000-0  89181-4 0  9994,2 49149  70.0013  18.8344 0003051 268.8218  91.2591 14.98336145135226,6950.174,96.107,574.159,569.918,0.0
49149.0,STARLINK-3053,PAYLOAD,2024-02-21 22:05:09,14.98325554,0.0003012,70.002,17.3193,268.9667,91.1147,9.1452e-05,9.98e-06,0.0,0 STARLINK-3053,1 49149U 21082V   24052.92024556  .00000998  00000-0  91452-4 0  9997,2 49149  70.0020  17.3193 0003012 268.9667  91.1147 14.98325554135314,6950.207,96.107,574.165,569.978,0.0
49149.0,STARLINK-3053,PAYLOAD,2024-02-22 04:29:41,14.98327124,0.00029,70.0018,16.648,265.058,95.0248,2.0377e-05,1.5e-06,0.0,0 STARLINK-3053,1 49149U 21082V   24053.18728688  .00000150  00000-0  20377-4 0  9991,2 49149  70.0018  16.6480 0002900 265.0580  95.0248 14.98327124135364,6950.202,96.107,574.082,570.051,0.0
49149.0,STARLINK-3053,PAYLOAD,2024-02-22 14:06:29,14.9833791,0.0002915,70.0021,15.6383,265.8304,94.2522,-0.00016728,-2.089e-05,0.0,0 STARLINK-3053,1 49149U 21082V   24053.58784480 -.00002089  00000-0 -16728-3 0  9996,2 49149  70.0021  15.6383 0002915 265.8304  94.2522 14.98337910135413,6950.168,96.106,574.059,570.007,0.0
49149.0,STARLINK-3053,PAYLOAD,2024-02-22 22:07:09,14.98353851,0.0002653,70.0018,14.7961,273.6503,86.4352,-0.00033948,-4.144e-05,0.0,0 STARLINK-3053,1 49149U 21082V   24053.92164097 -.00004144  00000-0 -33948-3 0  9997,2 49149  70.0018  14.7961 0002653 273.6503  86.4352 14.98353851135469,6950.119,96.105,573.828,570.14,0.0
49149.0,STARLINK-3053,PAYLOAD,2024-02-23 02:55:34,14.98344309,0.000255,70.0017,14.2905,275.1903,84.8965,-0.00021567,-2.666e-05,0.0,0 STARLINK-3053,1 49149U 21082V   24054.12192289 -.00002666  00000-0 -21567-3 0  9995,2 49149  70.0017  14.2905 0002550 275.1903  84.8965 14.98344309135503,6950.149,96.106,573.786,570.241,0.0
49149.0,STARLINK-3053,PAYLOAD,2024-02-23 06:07:51,14.9826017,0.0002475,70.0018,13.9549,269.8722,90.2154,0.0013673,0.00016229,0.0,0 STARLINK-3053,1 49149U 21082V   24054.25545800  .00016229  00000-0  13673-2 0  9996,2 49149  70.0018  13.9549 0002475 269.8722  90.2154 14.98260170135525,6950.409,96.111,573.994,570.554,0.0
49149.0,STARLINK-3053,PAYLOAD,2024-02-23 14:08:30,14.98331807,0.0002561,70.0029,13.1129,265.3982,94.6884,1.7759e-05,1.19e-06,0.0,0 STARLINK-3053,1 49149U 21082V   24054.58924384  .00000119  00000-0  17759-4 0  9992,2 49149  70.0029  13.1129 0002561 265.3982  94.6884 14.98331807135566,6950.187,96.107,573.832,570.272,0.0
49149.0,STARLINK-3053,PAYLOAD,2024-02-23 22:09:10,14.98321259,0.0002723,70.0024,12.2706,268.4598,91.6249,0.00020392,2.34e-05,0.0,0 STARLINK-3053,1 49149U 21082V   24054.92304347  .00002340  00000-0  20392-3 0  9995,2 49149  70.0024  12.2706 0002723 268.4598  91.6249 14.98321259135617,6950.22,96.108,573.977,570.192,0.0
49149.0,STARLINK-3053,PAYLOAD,2024-02-24 14:10:31,14.9835497,0.0002344,70.0034,10.5867,279.6239,80.4656,-0.00045975,-5.578e-05,0.0,0 STARLINK-3053,1 49149U 21082V   24055.59063984 -.00005578  00000-0 -45975-3 0  9990,2 49149  70.0034  10.5867 0002344 279.6239  80.4656 14.98354970135717,6950.116,96.105,573.61,570.352,0.0
49149.0,STARLINK-3053,PAYLOAD,2024-02-25 04:35:44,14.98320507,0.0002566,70.0029,9.0712,272.7184,87.3681,0.0001988,2.279e-05,0.0,0 STARLINK-3053,1 49149U 21082V   24056.19148649  .00002279  00000-0  19880-3 0  9998,2 49149  70.0029   9.0712 0002566 272.7184  87.3681 14.98320507135816,6950.222,96.108,573.871,570.304,0.0
49149.0,STARLINK-3053,PAYLOAD,2024-02-25 14:12:32,14.98332329,0.0002447,70.0038,8.0615,279.1925,80.8958,-1.8389e-05,-3.12e-06,0.0,0 STARLINK-3053,1 49149U 21082V   24056.59204423 -.00000312  00000-0 -18389-4 0  9997,2 49149  70.0038   8.0615 0002447 279.1925  80.8958 14.98332329135864,6950.186,96.107,573.751,570.35,0.0
49149.0,STARLINK-3053,PAYLOAD,2024-02-25 22:13:12,14.98326989,0.0003052,70.0041,7.2202,268.8244,91.2565,7.3709e-05,7.87e-06,0.0,0 STARLINK-3053,1 49149U 21082V   24056.92584261  .00000787  00000-0  73709-4 0  9996,2 49149  70.0041   7.2202 0003052 268.8244  91.2565 14.98326989135914,6950.202,96.107,574.188,569.946,0.0
49149.0,STARLINK-3053,PAYLOAD,2024-02-26 03:01:36,14.98336126,0.0002688,70.002,6.716,262.1672,97.9182,8.7184e-05,9.48e-06,0.0,0 STARLINK-3053,1 49149U 21082V   24057.12611699  .00000948  00000-0  87184-4 0  9996,2 49149  70.0020   6.7160 0002688 262.1672  97.9182 14.98336126135950,6950.174,96.107,573.907,570.171,0.0
49149.0,STARLINK-3053,PAYLOAD,2024-02-26 06:13:52,14.98336839,0.0002824,70.0018,6.3795,262.2029,97.8809,7.6144e-05,8.16e-06,0.0,0 STARLINK-3053,1 49149U 21082V   24057.25963630  .00000816  00000-0  76144-4 0  9993,2 49149  70.0018   6.3795 0002824 262.2029  97.8809 14.98336839135963,6950.172,96.107,573.999,570.074,0.0
49149.0,STARLINK-3053,PAYLOAD,2024-02-26 22:15:13,14.98327505,0.0002499,70.0021,4.6972,268.5935,91.4938,-9.8927e-06,-2.11e-06,0.0,0 STARLINK-3053,1 49149U 21082V   24057.92724493 -.00000211  00000-0 -98927-5 0  9994,2 49149  70.0021   4.6972 0002499 268.5935  91.4938 14.98327505136063,6950.201,96.107,573.802,570.329,0.0
49149.0,STARLINK-3053,PAYLOAD,2024-02-27 03:03:38,14.98330918,0.0002728,70.0013,4.1927,270.606,89.4787,-8.52e-05,-1.109e-05,0.0,0 STARLINK-3053,1 49149U 21082V   24058.12752550 -.00001109  00000-0 -85200-4 0  9998,2 49149  70.0013   4.1927 0002728 270.6060  89.4787 14.98330918136103,6950.19,96.107,573.951,570.159,0.0
49149.0,STARLINK-3053,PAYLOAD,2024-02-27 06:15:54,14.98332496,0.0002695,70.0013,3.8562,269.368,90.7171,-6.716e-05,-8.94e-06,0.0,0 STARLINK-3053,1 49149U 21082V   24058.26104371 -.00000894  00000-0 -67160-4 0  9990,2 49149  70.0013   3.8562 0002695 269.3680  90.7171 14.98332496136116,6950.185,96.107,573.923,570.177,0.0
49149.0,STARLINK-3053,PAYLOAD,2024-02-27 22:17:14,14.98331598,0.0002901,70.0012,2.1724,268.0938,91.9889,2.1719e-05,1.66e-06,0.0,0 STARLINK-3053,1 49149U 21082V   24058.92864058  .00000166  00000-0  21719-4 0  9998,2 49149  70.0012   2.1724 0002901 268.0938  91.9889 14.98331598136211,6950.188,96.107,574.069,570.037,0.0
49149.0,STARLINK-3053,PAYLOAD,2024-02-28 03:05:38,14.9833681,0.0002946,70.0015,1.6675,266.9479,93.1342,1.2602e-05,5.7e-07,0.0,0 STARLINK-3053,1 49149U 21082V   24059.12891726  .00000057  00000-0  12602-4 0  9993,2 49149  70.0015   1.6675 0002946 266.9479  93.1342 14.98336810136253,6950.172,96.107,574.084,569.989,0.0
49149.0,STARLINK-3053,PAYLOAD,2024-02-28 12:42:27,14.98332283,0.000274,70.0018,0.6561,271.1992,88.8853,-5.1549e-05,-7.08e-06,0.0,0 STARLINK-3053,1 49149U 21082V   24059.52948078 -.00000708  00000-0 -51549-4 0  9998,2 49149  70.0018   0.6561 0002740 271.1992  88.8853 14.98332283136303,6950.186,96.107,573.955,570.146,0.0
49149.0,STARLINK-3053,PAYLOAD,2024-02-28 22:19:15,14.98325318,0.0002629,70.0016,359.6461,272.4921,87.5937,6.931e-05,7.34e-06,0.0,0 STARLINK-3053,1 49149U 21082V   24059.93004257  .00000734  00000-0  69310-4 0  9997,2 49149  70.0016 359.6461 0002629 272.4921  87.5937 14.98325318136365,6950.207,96.107,573.9,570.245,0.0
49149.0,STARLINK-3053,PAYLOAD,2024-02-29 12:44:28,14.9833074,0.0002678,70.0019,358.1314,277.8521,82.2334,-2.5393e-06,-1.23e-06,0.0,0 STARLINK-3053,1 49149U 21082V   24060.53088217 -.00000123  00000-0 -25393-5 0  9991,2 49149  70.0019 358.1314 0002678 277.8521  82.2334 14.98330740136456,6950.191,96.107,573.917,570.194,0.0
49149.0,STARLINK-3053,PAYLOAD,2024-02-29 22:21:16,14.98332424,0.0002789,70.0013,357.1219,270.2134,89.8705,-2.0861e-05,-3.42e-06,0.0,0 STARLINK-3053,1 49149U 21082V   24060.93144067 -.00000342  00000-0 -20861-4 0  9998,2 49149  70.0013 357.1219 0002789 270.2134  89.8705 14.98332424136516,6950.185,96.107,573.989,570.112,0.0
49149.0,STARLINK-3053,PAYLOAD,2024-03-01 12:46:28,14.98363207,0.0002842,70.0018,355.6064,278.2841,81.7996,-0.0005345,-6.47e-05,0.0,0 STARLINK-3053,1 49149U 21082V   24061.53227077 -.00006470  00000-0 -53450-3 0  9995,2 49149  70.0018 355.6064 0002842 278.2841  81.7996 14.98363207136601,6950.09,96.105,573.93,569.98,0.0
